NORAD_CAT_ID,OBJECT_NAME,OBJECT_TYPE,EPOCH,MEAN_MOTION,ECCENTRICITY,INCLINATION,RA_OF_ASC_NODE,ARG_OF_PERICENTER,MEAN_ANOMALY,BSTAR,MEAN_MOTION_DOT,MEAN_MOTION_DDOT,TLE_LINE0,TLE_LINE1,TLE_LINE2,SEMIMAJOR_AXIS,PERIOD,APOGEE,PERIGEE,DECAYED
56493.0,STARLINK-5841,PAYLOAD,2023-10-09 04:00:43,15.69908669,0.0002956,69.9996,179.4959,269.6999,90.3858,-2.3088e-05,-2.986e-05,0.0,0 STARLINK-5841,1 56493U 23064AX  23282.16717106 -.00002986  00000-0 -23088-4 0  9990,2 56493  69.9996 179.4959 0002956 269.6999  90.3858 15.69908669 23796,6737.295,91.725,361.152,357.169,0.0
56493.0,STARLINK-5841,PAYLOAD,2023-10-09 19:18:13,15.69930013,0.0003482,69.9996,177.7039,267.7657,92.314,2.7885e-05,3.142e-05,0.0,0 STARLINK-5841,1 56493U 23064AX  23282.80432689  .00003142  00000-0  27885-4 0  9993,2 56493  69.9996 177.7039 0003482 267.7657  92.3140 15.69930013 24246,6737.234,91.724,361.445,356.753,0.0
56493.0,STARLINK-5841,PAYLOAD,2023-10-09 20:49:58,15.69932325,0.000317,69.9999,177.525,272.7012,87.3821,3.1399e-05,3.566e-05,0.0,0 STARLINK-5841,1 56493U 23064AX  23282.86804324  .00003566  00000-0  31399-4 0  9993,2 56493  69.9999 177.5250 0003170 272.7012  87.3821 15.69932325 23907,6737.228,91.724,361.228,356.957,0.0
56493.0,STARLINK-5841,PAYLOAD,2023-10-10 02:56:59,15.69912918,0.0003212,69.9995,176.8096,274.5348,85.5481,-2.6465e-05,-3.392e-05,0.0,0 STARLINK-5841,1 56493U 23064AX  23283.12291605 -.00003392  00000-0 -26465-4 0  9992,2 56493  69.9995 176.8096 0003212 274.5348  85.5481 15.69912918 24293,6737.283,91.725,361.312,356.984,0.0
56493.0,STARLINK-5841,PAYLOAD,2023-10-10 10:35:45,15.69911912,0.0003048,70.0002,175.9139,274.7025,85.3822,-2.0575e-05,-2.684e-05,0.0,0 STARLINK-5841,1 56493U 23064AX  23283.44150208 -.00002684  00000-0 -20575-4 0  9999,2 56493  70.0002 175.9139 0003048 274.7025  85.3822 15.69911912 23990,6737.286,91.725,361.205,357.097,0.0
56493.0,STARLINK-5841,PAYLOAD,2023-10-10 19:46:16,15.69925128,0.0003401,70.0002,174.8382,271.5171,88.5635,1.4553e-05,1.538e-05,0.0,0 STARLINK-5841,1 56493U 23064AX  23283.82379706  .00001538  00000-0  14553-4 0  9991,2 56493  70.0002 174.8382 0003401 271.5171  88.5635 15.69925128 24057,6737.248,91.724,361.405,356.822,0.0
56493.0,STARLINK-5841,PAYLOAD,2023-10-11 01:53:16,15.69931233,0.0002852,70.0005,174.1214,271.0742,89.0127,5.0049e-05,5.811e-05,0.0,0 STARLINK-5841,1 56493U 23064AX  23284.07866286  .00005811  00000-0  50049-4 0  9991,2 56493  70.0005 174.1214 0002852 271.0742  89.0127 15.69931233 24444,6737.231,91.724,361.017,357.174,0.0
56493.0,STARLINK-5841,PAYLOAD,2023-10-12 02:21:18,15.69918854,0.0003269,69.9999,171.2538,270.9451,89.137,1.1517e-06,-7.4e-07,0.0,0 STARLINK-5841,1 56493U 23064AX  23285.09813524 -.00000074  00000-0  11517-5 0  9996,2 56493  69.9999 171.2538 0003269 270.9451  89.1370 15.69918854 24601,6737.266,91.724,361.334,356.929,0.0
56493.0,STARLINK-5841,PAYLOAD,2023-10-12 10:00:04,15.69921748,0.00035,69.9994,170.3587,271.3239,88.7556,2.4121e-05,2.688e-05,0.0,0 STARLINK-5841,1 56493U 23064AX  23285.41671857  .00002688  00000-0  24121-4 0  9999,2 56493  69.9994 170.3587 0003500 271.3239  88.7556 15.69921748 24301,6737.258,91.724,361.481,356.765,0.0
56493.0,STARLINK-5841,PAYLOAD,2023-10-12 20:42:20,15.69928472,0.000342,69.9998,169.1047,270.4936,89.5868,2.5839e-05,2.896e-05,0.0,0 STARLINK-5841,1 56493U 23064AX  23285.86273366  .00002896  00000-0  25839-4 0  9999,2 56493  69.9998 169.1047 0003420 270.4936  89.5868 15.69928472 24370,6737.239,91.724,361.408,356.8,0.0
56493.0,STARLINK-5841,PAYLOAD,2023-10-13 01:17:35,15.69939395,0.0003601,69.9998,168.5689,268.5553,91.523,4.965e-05,5.765e-05,0.0,0 STARLINK-5841,1 56493U 23064AX  23286.05387758  .00005765  00000-0  49650-4 0  9997,2 56493  69.9998 168.5689 0003601 268.5553  91.5230 15.69939395 24753,6737.207,91.723,361.498,356.646,0.0
56493.0,STARLINK-5841,PAYLOAD,2023-10-13 19:38:36,15.69931276,0.0003643,69.9992,166.4195,275.8906,84.1874,6.6411e-06,5.86e-06,0.0,0 STARLINK-5841,1 56493U 23064AX  23286.81848034  .00000586  00000-0  66411-5 0  9991,2 56493  69.9992 166.4195 0003643 275.8906  84.1874 15.69931276 24870,6737.231,91.724,361.55,356.641,0.0
56493.0,STARLINK-5841,PAYLOAD,2023-10-13 22:42:06,15.69937979,0.0003629,69.9991,166.0614,268.1533,91.9247,1.8623e-05,2.028e-05,0.0,0 STARLINK-5841,1 56493U 23064AX  23286.94590920  .00002028  00000-0  18623-4 0  9997,2 56493  69.9991 166.0614 0003629 268.1533  91.9247 15.69937979 24546,6737.211,91.723,361.521,356.632,0.0
56493.0,STARLINK-5841,PAYLOAD,2023-10-14 01:45:37,15.69911914,0.0003141,69.9992,165.7028,268.63,91.4536,-3.135e-05,-3.978e-05,0.0,0 STARLINK-5841,1 56493U 23064AX  23287.07335560 -.00003978  00000-0 -31350-4 0  9998,2 56493  69.9992 165.7028 0003141 268.6300  91.4536 15.69911914 24916,6737.286,91.725,361.267,357.035,0.0
56493.0,STARLINK-5841,PAYLOAD,2023-10-14 18:34:54,15.699169,0.0003149,69.9992,163.7303,271.7634,88.3201,1.2341e-06,-6.4e-07,0.0,0 STARLINK-5841,1 56493U 23064AX  23287.77424019 -.00000064  00000-0  12341-5 0  9995,2 56493  69.9992 163.7303 0003149 271.7634  88.3201 15.69916900 25020,6737.272,91.725,361.258,357.015,0.0
56493.0,STARLINK-5841,PAYLOAD,2023-10-15 00:41:53,15.69934277,0.0003101,69.999,163.0157,252.2914,107.7944,1.0321e-05,1.029e-05,0.0,0 STARLINK-5841,1 56493U 23064AX  23288.02909670  .00001029  00000-0  10321-4 0  9991,2 56493  69.9990 163.0157 0003101 252.2914 107.7944 15.69934277 25062,6737.222,91.724,361.176,356.998,0.0
56493.0,STARLINK-5841,PAYLOAD,2023-10-15 19:02:55,15.69928812,0.0002731,69.9993,160.8662,241.286,118.8061,7.6808e-06,7.11e-06,0.0,0 STARLINK-5841,1 56493U 23064AX  23288.79370075  .00000711  00000-0  76808-5 0  9996,2 56493  69.9993 160.8662 0002731 241.2860 118.8061 15.69928812 25181,6737.238,91.724,360.943,357.263,0.0
56493.0,STARLINK-5841,PAYLOAD,2023-10-15 22:06:25,15.69938587,0.0003254,69.9973,160.5064,266.6672,93.4151,3.2799e-05,3.735e-05,0.0,0 STARLINK-5841,1 56493U 23064AX  23288.92113078  .00003735  00000-0  32799-4 0  9998,2 56493  69.9973 160.5064 0003254 266.6672  93.4151 15.69938587 24856,6737.21,91.723,361.267,356.882,0.0
56493.0,STARLINK-5841,PAYLOAD,2023-10-16 01:09:56,15.69924057,0.0003327,69.9972,160.1472,268.6876,91.3938,2.1814e-06,5e-07,0.0,0 STARLINK-5841,1 56493U 23064AX  23289.04856876  .00000050  00000-0  21814-5 0  9996,2 56493  69.9972 160.1472 0003327 268.6876  91.3938 15.69924057 25222,6737.251,91.724,361.358,356.875,0.0
56493.0,STARLINK-5841,PAYLOAD,2023-10-16 08:48:42,15.6991065,0.000295,69.9975,159.252,268.6105,91.4752,5.693e-06,4.72e-06,0.0,0 STARLINK-5841,1 56493U 23064AX  23289.36716234  .00000472  00000-0  56930-5 0  9999,2 56493  69.9975 159.2520 0002950 268.6105  91.4752 15.69910650 25278,6737.29,91.725,361.142,357.167,0.0
56493.0,STARLINK-5841,PAYLOAD,2023-10-16 16:27:27,15.69923728,0.0003705,69.999,158.3575,258.1138,101.9642,2.2715e-06,6e-07,0.0,0 STARLINK-5841,1 56493U 23064AX  23289.68573752  .00000060  00000-0  22715-5 0  9997,2 56493  69.9990 158.3575 0003705 258.1138 101.9642 15.69923728 25325,6737.252,91.724,361.613,356.621,0.0
56493.0,STARLINK-5841,PAYLOAD,2023-10-18 00:34:15,15.69930673,0.0003426,69.9972,154.594,266.4386,93.6417,3.9646e-06,2.64e-06,0.0,0 STARLINK-5841,1 56493U 23064AX  23291.02378499  .00000264  00000-0  39646-5 0  9996,2 56493  69.9972 154.5940 0003426 266.4386  93.6417 15.69930673 25184,6737.232,91.724,361.406,356.789,0.0
56493.0,STARLINK-5841,PAYLOAD,2023-10-18 08:13:01,15.6991734,0.0003148,69.9963,153.7007,267.795,92.2885,3.9309e-06,2.6e-06,0.0,0 STARLINK-5841,1 56493U 23064AX  23291.34237901  .00000260  00000-0  39309-5 0  9995,2 56493  69.9963 153.7007 0003148 267.7950  92.2885 15.69917340 25585,6737.27,91.725,361.256,357.015,0.0
56493.0,STARLINK-5841,PAYLOAD,2023-10-19 01:02:15,15.6994354,0.0003162,69.9981,151.7296,263.4083,96.6753,2.8112e-05,3.171e-05,0.0,0 STARLINK-5841,1 56493U 23064AX  23292.04323998  .00003171  00000-0  28112-4 0  9998,2 56493  69.9981 151.7296 0003162 263.4083  96.6753 15.69943540 25694,6737.196,91.723,361.191,356.93,0.0
56493.0,STARLINK-5841,PAYLOAD,2023-10-19 14:48:03,15.69912508,0.0003215,69.9971,150.1189,268.9816,91.1011,1.2503e-05,1.29e-05,0.0,0 STARLINK-5841,1 56493U 23064AX  23292.61671041  .00001290  00000-0  12503-4 0  9993,2 56493  69.9971 150.1189 0003215 268.9816  91.1011 15.69912508 25439,6737.284,91.725,361.315,356.983,0.0
56493.0,STARLINK-5841,PAYLOAD,2023-10-19 20:55:04,15.69916835,0.0002973,69.9971,149.402,273.0823,87.0032,1.5634e-05,1.667e-05,0.0,0 STARLINK-5841,1 56493U 23064AX  23292.87157606  .00001667  00000-0  15634-4 0  9993,2 56493  69.9971 149.4020 0002973 273.0823  87.0032 15.69916835 25826,6737.272,91.725,361.14,357.134,0.0
56493.0,STARLINK-5841,PAYLOAD,2023-10-19 22:26:49,15.69917033,0.0002975,69.9973,149.2229,273.0746,87.0109,1.5872e-05,1.696e-05,0.0,0 STARLINK-5841,1 56493U 23064AX  23292.93529293  .00001696  00000-0  15872-4 0  9991,2 56493  69.9973 149.2229 0002975 273.0746  87.0109 15.69917033 25481,6737.271,91.725,361.141,357.132,0.0
56493.0,STARLINK-5841,PAYLOAD,2023-10-21 00:26:34,15.69987538,0.0003037,69.9998,146.1761,275.2354,84.8495,-0.0001348,-0.00016431,0.0,0 STARLINK-5841,1 56493U 23064AX  23294.01845011 -.00016431  00000-0 -13480-3 0  9998,2 56493  69.9998 146.1761 0003037 275.2354  84.8495 15.69987538 26003,6737.07,91.72,360.981,356.889,0.0
56493.0,STARLINK-5841,PAYLOAD,2023-10-21 14:12:21,15.69930619,0.0002989,69.9977,144.5629,259.3162,100.7697,2.6851e-05,3.018e-05,0.0,0 STARLINK-5841,1 56493U 23064AX  23294.59191758  .00003018  00000-0  26851-4 0  9995,2 56493  69.9977 144.5629 0002989 259.3162 100.7697 15.69930619 25740,6737.232,91.724,361.111,357.084,0.0
56493.0,STARLINK-5841,PAYLOAD,2023-10-21 21:51:05,15.69959952,0.0002725,69.9991,143.6668,310.0934,50.0022,6.0036e-05,7.022e-05,0.0,0 STARLINK-5841,1 56493U 23064AX  23294.91048128  .00007022  00000-0  60036-4 0  9995,2 56493  69.9991 143.6668 0002725 310.0934  50.0022 15.69959952 25794,6737.149,91.722,360.849,357.178,0.0
